H1 CPF  1  DLR 2022 09 26 10  7692 technosat            
H2  1704205 6203    42829 2022 09 26 00 00 00 2022 10 03 00 00 00    60 1 1  0 0 0
H9
10 0 59848  79200.000000  0       4141442.313      -2353424.058       5084419.289
10 0 59848  79260.000000  0       4362321.780      -2602900.290       4770038.314
10 0 59848  79320.000000  0       4562681.641      -2843254.329       4435417.271
10 0 59848  79380.000000  0       4741764.660      -3073291.849       4081977.827
10 0 59848  79440.000000  0       4898913.913      -3291856.168       3711221.449
10 0 59848  79500.000000  0       5033575.304      -3497834.078       3324722.984
10 0 59848  79560.000000  0       5145299.564      -3690161.487       2924123.891
10 0 59848  79620.000000  0       5233743.708      -3867828.887       2511125.173
10 0 59848  79680.000000  0       5298671.980      -4029886.590       2087480.083
10 0 59848  79740.000000  0       5339956.318      -4175449.750       1654986.587
10 0 59848  79800.000000  0       5357576.311      -4303703.077       1215479.558
10 0 59848  79860.000000  0       5351618.615      -4413905.176        770822.853
10 0 59848  79920.000000  0       5322275.890      -4505392.637        322901.269
10 0 59848  79980.000000  0       5269845.197      -4577583.751       -126387.641
10 0 59848  80040.000000  0       5194725.893      -4629981.771       -575141.806
10 0 59848  80100.000000  0       5097417.062      -4662177.782      -1021462.837
10 0 59848  80160.000000  0       4978514.449      -4673853.178      -1463464.218
10 0 59848  80220.000000  0       4838706.948      -4664781.672      -1899279.399
10 0 59848  80280.000000  0       4678772.697      -4634830.848      -2327069.755
10 0 59848  80340.000000  0       4499574.740      -4583963.280      -2745032.380
10 0 59848  80400.000000  0       4302056.354      -4512237.225      -3151407.682
10 0 59848  80460.000000  0       4087236.024      -4419806.819      -3544486.771
10 0 59848  80520.000000  0       3856202.129      -4306921.796      -3922618.532
10 0 59848  80580.000000  0       3610107.359      -4173926.811      -4284216.427
10 0 59848  80640.000000  0       3350162.870      -4021260.304      -4627764.972
10 0 59848  80700.000000  0       3077632.239      -3849452.929      -4951825.844
10 0 59848  80760.000000  0       2793825.255      -3659125.580      -5255043.609
10 0 59848  80820.000000  0       2500091.615      -3450987.012      -5536151.019
10 0 59848  80880.000000  0       2197814.572      -3225831.136      -5793973.960
10 0 59848  80940.000000  0       1888404.493      -2984533.948      -6027436.047
10 0 59848  81000.000000  0       1573292.347      -2728050.114      -6235562.856
10 0 59848  81060.000000  0       1253923.143      -2457409.142      -6417485.739
10 0 59848  81120.000000  0        931749.390      -2173711.202      -6572445.156
10 0 59848  81180.000000  0        608224.621      -1878122.654      -6699793.536
10 0 59848  81240.000000  0        284797.002      -1571871.334      -6798997.726
10 0 59848  81300.000000  0        -37096.990      -1256241.541      -6869641.000
10 0 59848  81360.000000  0       -356038.711       -932568.790      -6911424.641
10 0 59848  81420.000000  0       -670633.404       -602234.359      -6924169.148
10 0 59848  81480.000000  0       -979516.163       -266659.584      -6907815.022
10 0 59848  81540.000000  0      -1281357.724         72700.063      -6862423.049
10 0 59848  81600.000000  0      -1574870.047        414361.057      -6788174.184
10 0 59848  81660.000000  0      -1858811.694        756818.105      -6685369.019
10 0 59848  81720.000000  0      -2131992.978       1098550.603      -6554426.796
10 0 59848  81780.000000  0      -2393280.865       1438029.187      -6395883.974
10 0 59848  81840.000000  0      -2641603.680       1773722.381      -6210392.402
10 0 59848  81900.000000  0      -2875955.563       2104103.401      -5998717.055
10 0 59848  81960.000000  0      -3095400.604       2427657.039      -5761733.302
10 0 59848  82020.000000  0      -3299076.733       2742886.595      -5500423.742
10 0 59848  82080.000000  0      -3486199.314       3048320.824      -5215874.545
10 0 59848  82140.000000  0      -3656064.389       3342520.877      -4909271.306
10 0 59848  82200.000000  0      -3808051.558       3624087.175      -4581894.453
10 0 59848  82260.000000  0      -3941626.450       3891666.207      -4235114.195
10 0 59848  82320.000000  0      -4056342.780       4143957.180      -3870385.061
10 0 59848  82380.000000  0      -4151843.981       4379718.532      -3489240.073
10 0 59848  82440.000000  0      -4227864.489       4597774.280      -3093284.549
10 0 59848  82500.000000  0      -4284230.632       4797020.115      -2684189.434
10 0 59848  82560.000000  0      -4320861.011       4976429.181      -2263684.325
10 0 59848  82620.000000  0      -4337766.485       5135057.616      -1833550.207
10 0 59848  82680.000000  0      -4335049.719       5272049.766      -1395611.832
10 0 59848  82740.000000  0      -4312904.252       5386643.032       -951729.821
10 0 59848  82800.000000  0      -4271613.030       5478172.274       -503792.429
10 0 59848  82860.000000  0      -4211546.469       5546073.531        -53707.271
10 0 59848  82920.000000  0      -4133160.229       5589887.500        396606.971
10 0 59848  82980.000000  0      -4036992.421       5609262.555        845229.144
10 0 59848  83040.000000  0      -3923660.448       5603957.083       1290244.226
10 0 59848  83100.000000  0      -3793857.456       5573841.296       1729751.905
10 0 59848  83160.000000  0      -3648348.327       5518898.485       2161875.131
10 0 59848  83220.000000  0      -3487965.280       5439225.631       2584768.469
10 0 59848  83280.000000  0      -3313603.191       5335033.467       2996626.273
10 0 59848  83340.000000  0      -3126214.649       5206645.977       3395690.606
10 0 59848  83400.000000  0      -2926804.793       5054499.408       3780258.970
10 0 59848  83460.000000  0      -2716425.865       4879140.671       4148691.796
10 0 59848  83520.000000  0      -2496171.591       4681225.179       4499419.556
10 0 59848  83580.000000  0      -2267171.434       4461514.171       4830949.531
10 0 59848  83640.000000  0      -2030584.735       4220871.529       5141872.234
10 0 59848  83700.000000  0      -1787594.715       3960260.076       5430867.422
10 0 59848  83760.000000  0      -1539402.437       3680737.408       5696709.594
10 0 59848  83820.000000  0      -1287220.798       3383451.309       5938273.064
10 0 59848  83880.000000  0      -1032268.525       3069634.746       6154536.592
10 0 59848  83940.000000  0       -775764.221       2740600.432       6344587.487
10 0 59848  84000.000000  0       -518920.555       2397735.159       6507625.194
10 0 59848  84060.000000  0       -262938.511       2042493.817       6642964.536
10 0 59848  84120.000000  0         -9001.734       1676393.002       6750038.454
10 0 59848  84180.000000  0        241728.974       1301004.353       6828400.143
10 0 59848  84240.000000  0        488120.957        917947.702       6877724.678
10 0 59848  84300.000000  0        729074.803        528884.044       6897810.187
10 0 59848  84360.000000  0        963529.222        135508.310       6888578.576
10 0 59848  84420.000000  0       1190465.708       -260458.064       6850075.777
10 0 59848  84480.000000  0       1408912.947       -657274.745       6782471.474
10 0 59848  84540.000000  0       1617950.977      -1053190.201       6686058.253
10 0 59848  84600.000000  0       1816715.036      -1446449.380       6561250.321
10 0 59848  84660.000000  0       2004399.143      -1835301.537       6408581.825
10 0 59848  84720.000000  0       2180259.379      -2218008.103       6228704.592
10 0 59848  84780.000000  0       2343616.846      -2592850.485       6022385.397
10 0 59848  84840.000000  0       2493860.323      -2958137.855       5790502.778
10 0 59848  84900.000000  0       2630448.515      -3312214.855       5534043.331
10 0 59848  84960.000000  0       2752911.973      -3653469.150       5254097.588
10 0 59848  85020.000000  0       2860854.676      -3980338.845       4951855.501
10 0 59848  85080.000000  0       2953955.274      -4291319.778       4628601.506
10 0 59848  85140.000000  0       3031967.966      -4584972.624       4285709.072
10 0 59848  85200.000000  0       3094722.965      -4859929.645       3924634.837
10 0 59848  85260.000000  0       3142126.576      -5114901.173       3546912.473
10 0 59848  85320.000000  0       3174160.953      -5348681.832       3154146.168
10 0 59848  85380.000000  0       3190883.443      -5560156.384       2748003.735
10 0 59848  85440.000000  0       3192425.517      -5748305.135       2330209.413
10 0 59848  85500.000000  0       3178991.335      -5912208.929       1902536.470
10 0 59848  85560.000000  0       3150855.956      -6051053.659       1466799.530
10 0 59848  85620.000000  0       3108363.278      -6164134.292       1024846.799
10 0 59848  85680.000000  0       3051923.605      -6250858.426        578552.080
10 0 59848  85740.000000  0       2982010.895      -6310749.383        129806.729
10 0 59848  85800.000000  0       2899159.682      -6343448.795       -319488.619
10 0 59848  85860.000000  0       2803961.670      -6348718.459       -767432.371
10 0 59848  85920.000000  0       2697062.063      -6326441.576      -1212130.179
10 0 59848  85980.000000  0       2579155.664      -6276623.504      -1651703.010
10 0 59848  86040.000000  0       2450982.769      -6199391.978      -2084295.171
10 0 59848  86100.000000  0       2313324.940      -6094996.739      -2508082.243
10 0 59848  86160.000000  0       2167000.479      -5963808.601      -2921278.939
10 0 59848  86220.000000  0       2012859.665      -5806317.794      -3322146.595
10 0 59848  86280.000000  0       1851780.073      -5623131.822      -3709000.340
10 0 59848  86340.000000  0       1684661.828      -5414972.816      -4080216.070
99
